#dP2020  3  6  0  0  0.00000000      96 __u+U ITR00 FIT  IAC
## 2095 432000.00000000   900.00000000 58914 0.0000000000000
+  114   C01C02C03C04C05C06C07C08C09C10C11C12C13C14C16C19C20
+        C21C22C23C24C25C26C27C28C29C30C32C33C34C35C36C37E01
+        E02E03E04E05E07E08E09E11E12E13E14E15E18E19E21E24E25
+        E26E27E30E31E33E36G01G02G03G04G05G06G07G08G09G10G11
+        G12G13G14G15G16G17G18G19G20G21G22G23G24G25G26G27G28
+        G29G30G31G32J01J02J03R01R02R03R04R05R07R08R09R11R12
+        R13R14R15R16R17R18R19R20R21R22R23R26  0  0  0  0  0
++        13 13 13 12 12  8  8  8  8  8  8  8  8  7  0  7  7
++         8  8  8  8  8  8  7  7  8  8  8  8  8  8  8  8  5
++         5  4  4  5  4  4  5  4  5  4  5  5  4  4  5  5  4
++         4  4  5  5  5  5  3  3  3  3  3  3  4  3  3  3  3
++         3  4  3  4  4  3  4  3  3  3  3  4  3  3  3  4  3
++         4  3  3  3  9  9  8  6  6  6  6  5  5  5  5  6  5
++         6  5  6  6  6  6  6  6  5  5  5  8  0  0  0  0  0
%c M  cc GPS ccc cccc cccc cccc cccc ccccc ccccc ccccc ccccc
%c cc cc ccc ccc cccc cccc cccc cccc ccccc ccccc ccccc ccccc
%f  0.0000000  0.000000000  0.00000000000  0.000000000000000
%f  0.0000000  0.000000000  0.00000000000  0.000000000000000
%i    0    0    0    0      0      0      0      0         0
%i    0    0    0    0      0      0      0      0         0
/* INFORMATION & ANALYSIS CENTER (IAC)            RAPID DATA
/* S/V CLOCKS ARE ALIGNED TO GNSS TIME                      
/* G:C1WC2W R:C1PC2P E:C1XC5X C:C2IC6I J:C1CC2S             
/* PCV:IGS14_2091 OL/AL:FES2004  NONE     YN ORB:CoN CLK:CoN
*  2020 03 06 12  0  0.00000000
PC01 -32261.784797  27115.284910    974.619976    280.890689
PC02   4319.963049  41948.870586   -341.983373    500.617926
PC03 -14836.316343  39433.110042    537.531084    -21.047687
PC04 -39588.383382  14484.791474    717.258588    -57.828621
PC05  21806.469954  36053.659957   -653.890653    -81.688091
PC06 -14124.496800  20702.100149 -33569.015121    241.465452
PC07 -22837.201986  33797.879147   9783.368772   -122.818372
PC08  -7401.847978  34148.553047  23926.455604   -144.048158
PC09   1510.535505  25910.913889 -32916.319402    382.218213
PC10 -11020.336371  34764.005362  20976.597622   -727.827217
PC11 -16728.820635   5380.861893  21729.134627   -223.597496
PC12 -24343.599720 -10393.802999   8844.578655    327.953336
PC13   1489.773971  40620.618437  11778.162836    307.206875
PC14 -24357.746493  13293.667297  -2632.392747    211.484080
PC16      0.000000      0.000000      0.000000 999999.999999
PC19  18685.708612 -17377.866281  11340.433690    344.351170
PC20  26194.717215  -7799.625741  -5689.640483   -819.707132
PC21 -18297.845357  -6837.630490  19941.897000   -144.449822
PC22    227.092159 -17049.346205  22103.009428   -884.485847
PC23   1175.471716  27291.377919   5711.598102   -912.331303
PC24 -16323.813667   4941.571613 -22103.317004   -915.178624
PC25  -9965.824809  23471.432062 -11365.996144   -539.048837
PC26 -12927.931790 -14744.853464 -19849.257662    596.478699
PC27  22366.152063  16666.815352    142.257808    290.406847
PC28   8987.082001  20735.346797  16380.048080    281.354683
PC29   9091.476466 -13032.949843 -22941.427488    197.149473
PC30  22813.255650   2250.571252 -15893.308113    282.473325
PC32  18390.147275   6664.615651 -19889.806546   -887.809338
PC33 -18646.961451  17438.432057 -11239.575715   -924.611404
PC34 -22680.780218  -1971.161356  16155.954009   -525.142385
PC35  -9557.860765 -20448.038923 -16430.318602   -948.396959
PC36  10628.777084 -23073.410123  11569.335024   -823.810188
PC37  12301.396575  15693.521648  19542.068971   -864.064523
PE01   6496.966122 -26461.276981 -11561.081463   -809.029222
PE02  -6455.647810  26458.298997  11611.565544    117.469586
PE03  -1027.471919  17108.318261 -24133.775505   -273.776740
PE04 -20017.244833 -12636.070290  17775.562220   -479.514492
PE05 -21731.001959  11598.644311 -16411.573448   -399.601612
PE07  29586.598382    642.054417   -834.887619   -350.377136
PE08  20284.182021  12296.206434 -17712.793095   6210.661538
PE09 -29579.869955   -390.833560    772.913872   6134.450724
PE11 -19956.957593  -6819.927078  20781.401322   1594.271649
PE12 -17495.291783 -23400.593505   4832.303489   5917.841601
PE13  19964.870257   7013.291626 -20680.233920    398.978890
PE14  -5678.597092 -21680.938760 -22489.339769   -930.270637
PE15  17644.253550  23225.136192  -5003.632779    874.936767
PE18  15420.449561  16047.664879  11565.615557  -1028.121170
PE19   3494.172019 -16862.574518  24078.543856     -1.249299
PE21  18266.323750 -22189.318954   7063.866591   -586.423080
PE24 -19560.789346   4595.967768 -21760.175048   5574.695144
PE25 -18315.236093  22122.448551  -7178.054736   -505.882578
PE26  10565.712333 -13639.142862 -24040.700537   3451.040349
PE27  19504.939833  -4809.788055  21733.819298    268.049152
PE30   9076.969803  15572.828335  23469.314970   4089.144600
PE31  -9287.984098 -15303.529962 -23570.919139   -471.915066
PE33  -4988.132423 -25817.276147 -13591.408132   -469.751280
PE36 -10583.419686  13312.961085  24237.128307    589.577765
PG01 -14777.779012   1314.352630  21838.152642   -316.931814
PG02  13636.960817  20321.223665  -9769.766661   -417.022773
PG03 -21818.452804  10953.064665  10283.169682   -110.975062
PG04 -23556.307826   1273.156231 -12221.434784    -58.417914
PG05  13598.529948   8024.271037 -21509.560390     -8.672391
PG06   6625.933733  25692.253560   -485.319322   -224.677069
PG07  -7502.005434  19078.285325 -16327.324349   -229.629037
PG08 -25967.059420  -5973.173519   1702.622054    -26.144300
PG09 -15818.990536   9686.799044 -19071.500652   -170.581916
PG10   7156.540314 -20907.863181  14643.820789   -268.178181
PG11 -20664.151532  -7306.281450  14305.432259   -341.820332
PG12  22079.700138  -7606.544381  12259.506129    143.761248
PG13  22498.331200  13409.798360  -4794.629958     -7.834429
PG14 -12372.834985 -17112.665210  16556.200814    -28.097939
PG15  26453.749768   3487.635597   1827.274908   -246.874833
PG16 -12969.230724  -8423.794631 -21859.086143   -131.966543
PG17   1918.406978  15917.801670  21609.282240    227.517716
PG18 -16307.299833  -7467.702516  19111.682565      5.778824
PG19  10332.949742  16809.942640  17485.151932   -189.493656
PG20  14185.772152 -21993.270150   3722.785418    527.879801
PG21   4529.158418 -21060.292538 -14909.090271    -31.587385
PG22 -20245.206645   3789.850887  16923.968642   -785.349022
PG23 -23498.488822   2759.379360 -12075.556461   -131.633308
PG24  16183.774650    314.189715  20909.133716     -9.977796
PG25  20041.502446 -17038.997498   2109.147206    -10.346323
PG26  -4866.937522 -16097.587262 -20539.062817    162.080540
PG27 -21887.085038 -12600.565203  -8882.081925   -230.675150
PG28  -7488.912505  20025.383848  16436.381184    734.770176
PG29  17552.118502  -6787.617861 -18784.202576    -49.812374
PG30   -210.715011  25427.714060  -7267.583919   -169.065497
PG31  -7795.543445 -24902.348947  -3410.671638    -27.646660
PG32  -3545.178396 -16249.553059  20808.198246    229.495530
PJ01 -33372.088212  22065.074408  -8557.912517   -326.799188
PJ02 -23951.119937  31422.020448 -10219.340725     -1.697233
PJ03 -27627.472067  22037.956297  28069.820905     -0.921335
PR01 -12353.593610  12526.808573 -18461.169999     58.126361
PR02   9831.340091   8290.649486 -21978.864427    415.327159
PR03  23082.220206   -460.622787 -10752.932761     11.042842
PR04  23020.795762  -8882.398631   6487.828330     41.047098
PR05   9951.035272 -12165.720522  20093.967271     46.240984
PR07 -23348.451663    712.585167  10331.702519    -34.036124
PR08 -23078.560683   8812.930449  -6330.563747    -50.895357
PR09  -4972.638952 -16401.744144 -18909.301035    120.416618
PR11 -12305.219768  16365.559550 -15176.315024    -15.789644
PR12  -6741.812625  24610.409403    570.388617    111.603507
PR13   3065.077007  18942.650197  16785.583889    -35.688847
PR14  10855.584752   2162.273344  22987.111030     48.841521
PR15  12387.638266 -15641.861409  15901.652732    106.074317
PR16   6026.081669 -24695.485126  -1044.681708     -1.916651
PR17  19135.603272  12526.973414 -11313.339404    306.727348
PR18  12553.267518  -1290.542892 -22136.536612     27.513720
PR19    -40.538677 -14134.458751 -21228.769023    -82.428449
PR20 -14341.712291 -20112.650495  -6452.261062   -405.866571
PR21 -18978.460814 -11938.834681  12151.033639   -109.421864
PR22 -10827.609412   3456.740147  22860.406593    -16.739345
PR23   5631.151548  17512.314352  17665.690977    290.790104
PR26 -12176.846213 -19756.808407 -10545.036346   -404.452912
EOF
